NORAD_CAT_ID,OBJECT_NAME,OBJECT_TYPE,EPOCH,MEAN_MOTION,ECCENTRICITY,INCLINATION,RA_OF_ASC_NODE,ARG_OF_PERICENTER,MEAN_ANOMALY,BSTAR,MEAN_MOTION_DOT,MEAN_MOTION_DDOT,TLE_LINE0,TLE_LINE1,TLE_LINE2,SEMIMAJOR_AXIS,PERIOD,APOGEE,PERIGEE,DECAYED
53827.0,STARLINK-4764,PAYLOAD,2023-06-07 06:12:49,15.08835355,0.000117,53.2155,142.2262,94.6527,265.4599,3.9426e-05,3.4e-06,0.0,0 STARLINK-4764,1 53827U 22114K   23158.25890723  .00000340  00000-0  39426-4 0  9995,2 53827  53.2155 142.2262 0001170  94.6527 265.4599 15.08835355 40893,6917.895,95.438,540.569,538.95,0.0
53827.0,STARLINK-4764,PAYLOAD,2023-06-07 15:45:08,15.08837115,0.0001167,53.2155,140.442,93.2323,266.8803,3.7783e-05,3.13e-06,0.0,0 STARLINK-4764,1 53827U 22114K   23158.65634716  .00000313  00000-0  37783-4 0  9991,2 53827  53.2155 140.4420 0001167  93.2323 266.8803 15.08837115 40950,6917.889,95.438,540.562,538.947,0.0
53827.0,STARLINK-4764,PAYLOAD,2023-06-08 06:03:36,15.08840663,0.0001167,53.2155,137.7659,93.0594,267.0532,6.811e-05,7.96e-06,0.0,0 STARLINK-4764,1 53827U 22114K   23159.25250500  .00000796  00000-0  68110-4 0  9996,2 53827  53.2155 137.7659 0001167  93.0594 267.0532 15.08840663 40506,6917.878,95.438,540.551,538.936,0.0
53827.0,STARLINK-4764,PAYLOAD,2023-06-09 05:54:23,15.0884052,0.0001182,53.2154,133.3052,94.3946,265.7182,7.9716e-05,9.81e-06,0.0,0 STARLINK-4764,1 53827U 22114K   23160.24610558  .00000981  00000-0  79716-4 0  9990,2 53827  53.2154 133.3052 0001182  94.3946 265.7182 15.08840520 41190,6917.879,95.438,540.561,538.926,0.0
53827.0,STARLINK-4764,PAYLOAD,2023-06-09 21:48:15,15.08839707,0.0001192,53.2154,130.3326,93.9042,266.2086,3.9067e-05,3.34e-06,0.0,0 STARLINK-4764,1 53827U 22114K   23160.90850763  .00000334  00000-0  39067-4 0  9994,2 53827  53.2154 130.3326 0001192  93.9042 266.2086 15.08839707 41299,6917.881,95.438,540.571,538.922,0.0
53827.0,STARLINK-4764,PAYLOAD,2023-06-10 04:09:47,15.08838677,0.0001205,53.2156,129.1421,93.5726,266.5404,3.2167e-05,2.24e-06,0.0,0 STARLINK-4764,1 53827U 22114K   23161.17346883  .00000224  00000-0  32167-4 0  9999,2 53827  53.2156 129.1421 0001205  93.5726 266.5404 15.08838677 40799,6917.884,95.438,540.583,538.916,0.0
53827.0,STARLINK-4764,PAYLOAD,2023-06-10 21:39:02,15.08837956,0.0001276,53.2158,125.8712,93.0153,267.0985,1.775e-05,-5e-08,0.0,0 STARLINK-4764,1 53827U 22114K   23161.90211037 -.00000005  00000-0  17750-4 0  9991,2 53827  53.2158 125.8712 0001276  93.0153 267.0985 15.08837956 41446,6917.887,95.438,540.634,538.869,0.0
53827.0,STARLINK-4764,PAYLOAD,2023-06-11 07:11:20,15.0884035,0.0001261,53.2153,124.0861,90.316,269.7976,4.1368e-05,3.71e-06,0.0,0 STARLINK-4764,1 53827U 22114K   23162.29954857  .00000371  00000-0  41368-4 0  9995,2 53827  53.2153 124.0861 0001261  90.3160 269.7976 15.08840350 40966,6917.879,95.438,540.617,538.872,0.0
53827.0,STARLINK-4764,PAYLOAD,2023-06-12 02:15:58,15.08842519,0.0001236,53.2158,120.5177,88.8085,271.3048,6.3943e-05,7.3e-06,0.0,0 STARLINK-4764,1 53827U 22114K   23163.09442637  .00000730  00000-0  63943-4 0  9994,2 53827  53.2158 120.5177 0001236  88.8085 271.3048 15.08842519 41624,6917.873,95.437,540.593,538.883,0.0
53827.0,STARLINK-4764,PAYLOAD,2023-06-12 03:51:21,15.08843995,0.000127,53.2158,120.2202,90.2881,269.8256,7.6125e-05,9.24e-06,0.0,0 STARLINK-4764,1 53827U 22114K   23163.16066494  .00000924  00000-0  76125-4 0  9996,2 53827  53.2158 120.2202 0001270  90.2881 269.8256 15.08843995 41632,6917.868,95.437,540.612,538.855,0.0
53827.0,STARLINK-4764,PAYLOAD,2023-06-13 03:42:09,15.08832856,0.0001363,53.2166,115.7589,93.6326,266.4822,-6.2636e-06,-3.88e-06,0.0,0 STARLINK-4764,1 53827U 22114K   23164.15427626 -.00000388  00000-0 -62636-5 0  9993,2 53827  53.2166 115.7589 0001363  93.6326 266.4822 15.08832856 41245,6917.902,95.438,540.71,538.824,0.0
53827.0,STARLINK-4764,PAYLOAD,2023-06-13 06:52:55,15.08831561,0.0001364,53.2168,115.1646,93.1683,266.9465,-1.7143e-05,-5.61e-06,0.0,0 STARLINK-4764,1 53827U 22114K   23164.28675795 -.00000561  00000-0 -17143-4 0  9994,2 53827  53.2168 115.1646 0001364  93.1683 266.9465 15.08831561 41809,6917.906,95.438,540.715,538.828,0.0
53827.0,STARLINK-4764,PAYLOAD,2023-06-13 21:11:23,15.08835437,0.0001435,53.2164,112.4893,114.6003,245.5139,-7.2913e-06,-4.04e-06,0.0,0 STARLINK-4764,1 53827U 22114K   23164.88291608 -.00000404  00000-0 -72913-5 0  9990,2 53827  53.2164 112.4893 0001435 114.6003 245.5139 15.08835437 41899,6917.894,95.438,540.752,538.767,0.0
53827.0,STARLINK-4764,PAYLOAD,2023-06-14 06:43:42,15.08840961,0.0001403,53.2165,110.7052,112.3554,247.7587,4.0073e-05,3.5e-06,0.0,0 STARLINK-4764,1 53827U 22114K   23165.28035186  .00000350  00000-0  40073-4 0  9991,2 53827  53.2165 110.7052 0001403 112.3554 247.7587 15.08840961 41416,6917.877,95.437,540.713,538.772,0.0
53827.0,STARLINK-4764,PAYLOAD,2023-06-14 19:26:48,15.08831456,0.0001174,53.2164,108.3262,96.1507,263.9619,1.6631e-05,-2.3e-07,0.0,0 STARLINK-4764,1 53827U 22114K   23165.81028077 -.00000023  00000-0  16631-4 0  9992,2 53827  53.2164 108.3262 0001174  96.1507 263.9619 15.08831456 42037,6917.907,95.438,540.584,538.959,0.0
53827.0,STARLINK-4764,PAYLOAD,2023-06-15 03:23:43,15.08833723,0.0001122,53.216,106.8393,95.9431,264.1689,3.0921e-05,2.04e-06,0.0,0 STARLINK-4764,1 53827U 22114K   23166.14148027  .00000204  00000-0  30921-4 0  9995,2 53827  53.2160 106.8393 0001122  95.9431 264.1689 15.08833723 41541,6917.9,95.438,540.541,538.988,0.0
53827.0,STARLINK-4764,PAYLOAD,2023-06-15 04:59:07,15.0883436,0.00011,53.2158,106.5417,93.7411,266.3707,3.6873e-05,2.99e-06,0.0,0 STARLINK-4764,1 53827U 22114K   23166.20771997  .00000299  00000-0  36873-4 0  9996,2 53827  53.2158 106.5417 0001100  93.7411 266.3707 15.08834360 42096,6917.898,95.438,540.524,539.002,0.0
53827.0,STARLINK-4764,PAYLOAD,2023-06-16 01:39:07,15.08843408,0.0001114,53.2154,102.676,84.8743,275.2377,8.2165e-05,1.02e-05,0.0,0 STARLINK-4764,1 53827U 22114K   23167.06883494  .00001020  00000-0  82165-4 0  9995,2 53827  53.2154 102.6760 0001114  84.8743 275.2377 15.08843408 41683,6917.87,95.437,540.506,538.964,0.0
53827.0,STARLINK-4764,PAYLOAD,2023-06-16 04:49:53,15.08848314,0.0001408,53.2159,102.0814,98.0394,262.0758,0.00017001,2.419e-05,0.0,0 STARLINK-4764,1 53827U 22114K   23167.20130911  .00002419  00000-0  17001-3 0  9999,2 53827  53.2159 102.0814 0001408  98.0394 262.0758 15.08848314 41708,6917.855,95.437,540.694,538.746,0.0
53827.0,STARLINK-4764,PAYLOAD,2023-06-16 12:46:49,15.08846861,0.0001287,53.217,100.5952,84.2196,275.8943,5.4319e-05,5.77e-06,0.0,0 STARLINK-4764,1 53827U 22114K   23167.53251313  .00000577  00000-0  54319-4 0  9992,2 53827  53.2170 100.5952 0001287  84.2196 275.8943 15.08846861 42297,6917.859,95.437,540.615,538.834,0.0
53827.0,STARLINK-4764,PAYLOAD,2023-06-17 12:37:36,15.08838199,0.0001223,53.2158,96.1347,88.4593,271.654,2.5813e-05,1.23e-06,0.0,0 STARLINK-4764,1 53827U 22114K   23168.52611682  .00000123  00000-0  25813-4 0  9995,2 53827  53.2158  96.1347 0001223  88.4593 271.6540 15.08838199 42447,6917.886,95.438,540.597,538.905,0.0
53827.0,STARLINK-4764,PAYLOAD,2023-06-17 18:59:09,15.08838025,0.0001407,53.2156,94.9439,98.4395,261.6757,-0.0001206,-2.207e-05,0.0,0 STARLINK-4764,1 53827U 22114K   23168.79108341 -.00002207  00000-0 -12060-3 0  9993,2 53827  53.2156  94.9439 0001407  98.4395 261.6757 15.08838025 42489,6917.886,95.438,540.725,538.778,0.0
53827.0,STARLINK-4764,PAYLOAD,2023-06-18 01:20:42,15.08837383,0.0001346,53.2155,93.7548,99.2767,260.8377,-0.000118,-2.165e-05,0.0,0 STARLINK-4764,1 53827U 22114K   23169.05604357 -.00002165  00000-0 -11800-3 0  9995,2 53827  53.2155  93.7548 0001346  99.2767 260.8377 15.08837383 41989,6917.888,95.438,540.685,538.822,0.0
53827.0,STARLINK-4764,PAYLOAD,2023-06-18 12:28:23,15.08839383,0.0001321,53.2165,91.6725,101.6135,258.5006,-8.273e-05,-1.604e-05,0.0,0 STARLINK-4764,1 53827U 22114K   23169.51972177 -.00001604  00000-0 -82730-4 0  9992,2 53827  53.2165  91.6725 0001321 101.6135 258.5006 15.08839383 42597,6917.882,95.438,540.661,538.833,0.0
53827.0,STARLINK-4764,PAYLOAD,2023-06-19 04:22:14,15.0885214,0.0001199,53.2166,88.7,92.5738,267.5391,2.9408e-05,1.8e-06,0.0,0 STARLINK-4764,1 53827U 22114K   23170.18210996  .00000180  00000-0  29408-4 0  9990,2 53827  53.2166  88.7000 0001199  92.5738 267.5391 15.08852140 42156,6917.843,95.437,540.538,538.879,0.0
53827.0,STARLINK-4764,PAYLOAD,2023-06-20 04:13:02,15.08842651,0.000123,53.2178,84.2383,101.0918,259.0213,1.1203e-05,-1.1e-06,0.0,0 STARLINK-4764,1 53827U 22114K   23171.17571814 -.00000110  00000-0  11203-4 0  9997,2 53827  53.2178  84.2383 0001230 101.0918 259.0213 15.08842651 42308,6917.872,95.437,540.588,538.886,0.0
53827.0,STARLINK-4764,PAYLOAD,2023-06-20 18:31:30,15.08840486,0.000156,53.2173,81.5642,97.7849,262.332,6.1596e-06,-1.9e-06,0.0,0 STARLINK-4764,1 53827U 22114K   23171.77188343 -.00000190  00000-0  61596-5 0  9993,2 53827  53.2173  81.5642 0001560  97.7849 262.3320 15.08840486 42930,6917.879,95.438,540.823,538.665,0.0
53827.0,STARLINK-4764,PAYLOAD,2023-06-21 10:25:21,15.088435,0.0001214,53.2172,78.587,97.5256,262.5874,2.6155e-05,1.28e-06,0.0,0 STARLINK-4764,1 53827U 22114K   23172.43427747  .00000128  00000-0  26155-4 0  9992,2 53827  53.2172  78.5870 0001214  97.5256 262.5874 15.08843500 42491,6917.87,95.437,540.575,538.895,0.0
53827.0,STARLINK-4764,PAYLOAD,2023-06-22 00:43:50,15.0883615,0.0001196,53.2173,75.9164,95.9001,264.2128,-4.9209e-05,-1.071e-05,0.0,0 STARLINK-4764,1 53827U 22114K   23173.03044740 -.00001071  00000-0 -49209-4 0  9992,2 53827  53.2173  75.9164 0001196  95.9001 264.2128 15.08836150 42582,6917.892,95.438,540.585,538.93,0.0
53827.0,STARLINK-4764,PAYLOAD,2023-06-23 02:10:00,15.08848387,0.0001096,53.2173,71.158,86.6223,273.4895,0.00014367,2e-05,0.0,0 STARLINK-4764,1 53827U 22114K   23174.09027786  .00002000  00000-0  14367-3 0  9997,2 53827  53.2173  71.1580 0001096  86.6223 273.4895 15.08848387 42740,6917.855,95.437,540.478,538.962,0.0
